STARLINK-36559          
1 67555U 26014Z   26027.58337963 -.01131347  43406-3 -17226-2 0  9994
2 67555  97.2809 270.2291 0001077  76.7559 352.0203 16.04528708  2088
2026-015A               
1 67556U 26015A   26030.17379427  .00000102  00000+0  13532-3 0  9993
2 67556  88.9994 282.5747 0004891 107.7312 252.4374 13.52685100  1050
2026-015B               
1 67557U 26015B   26030.24790428  .00000057  00000+0  68067-4 0  9993
2 67557  88.9994 282.5675 0004982 106.7447 253.4252 13.52660446  1063
ELECTRON R/B            
1 67558U 26015C   26030.22692296  .01144418 -51545-6  12369-2 0  9997
2 67558  89.0052 282.3574 0591587 242.1320 111.8798 14.93583696  1164
ELECTRON KICK STAGE R/B 
1 67559U 26015D   26030.26632676  .00072335  30491-6  12319-2 0  9996
2 67559  89.0538 282.4263 0537202 308.4366  46.9768 14.66158363  1153
STARLINK-36426          
1 67560U 26014AA  26027.58337963 -.01138703  43830-3 -17536-2 0  9998
2 67560  97.2806 270.2281 0001173  81.1243 345.7526 16.04339818  2086
CZ-2C DEB               
1 67586U 26009C   26030.12552757  .00027161  00000+0  12726-2 0  9990
2 67586  97.2223 104.2452 0145069 171.6325 188.7377 15.10712799  2259
CZ-2C DEB               
1 67587U 26009D   26030.23923993  .00057997  00000+0  28547-2 0  9995
2 67587  97.6751 105.0240 0109600 175.2408 184.9892 15.12570869  2271
NAVSTAR 85 (USA 581)    
1 67588U 26017A   26028.76206649  .00000346  00000+0  32093-3 0  9990
2 67588  55.0007  99.1396 5940837 270.1415  26.1406  4.03376750    44
