CCSDS_OMM_VERS = 2.0
CREATION_DATE  = 
ORIGINATOR     = 

OBJECT_NAME    = STARLINK-36559
OBJECT_ID      = 2026-014Z
CENTER_NAME    = EARTH
REF_FRAME      = TEME
TIME_SYSTEM    = UTC
MEAN_ELEMENT_THEORY = SGP/SGP4

EPOCH          = 2026-01-27T14:00:04.000032
MEAN_MOTION    = 16.04528708
ECCENTRICITY   = .0001077
INCLINATION    = 97.2809
RA_OF_ASC_NODE = 270.2291
ARG_OF_PERICENTER = 76.7559
MEAN_ANOMALY   = 352.0203

EPHEMERIS_TYPE = 0
CLASSIFICATION_TYPE = U
NORAD_CAT_ID   = 67555
ELEMENT_SET_NO = 999
REV_AT_EPOCH   = 208
BSTAR          = -.17226E-2
MEAN_MOTION_DOT = -.1131347E-1
MEAN_MOTION_DDOT = .43406E-3

CCSDS_OMM_VERS = 2.0
CREATION_DATE  = 
ORIGINATOR     = 

OBJECT_NAME    = 2026-015A
OBJECT_ID      = 2026-015A
CENTER_NAME    = EARTH
REF_FRAME      = TEME
TIME_SYSTEM    = UTC
MEAN_ELEMENT_THEORY = SGP/SGP4

EPOCH          = 2026-01-30T04:10:15.824928
MEAN_MOTION    = 13.52685100
ECCENTRICITY   = .00048911
INCLINATION    = 88.9994
RA_OF_ASC_NODE = 282.5747
ARG_OF_PERICENTER = 107.7312
MEAN_ANOMALY   = 252.4374

EPHEMERIS_TYPE = 0
CLASSIFICATION_TYPE = U
NORAD_CAT_ID   = 67556
ELEMENT_SET_NO = 999
REV_AT_EPOCH   = 105
BSTAR          = .13531967E-3
MEAN_MOTION_DOT = .102E-5
MEAN_MOTION_DDOT = 0

CCSDS_OMM_VERS = 2.0
CREATION_DATE  = 
ORIGINATOR     = 

OBJECT_NAME    = 2026-015B
OBJECT_ID      = 2026-015B
CENTER_NAME    = EARTH
REF_FRAME      = TEME
TIME_SYSTEM    = UTC
MEAN_ELEMENT_THEORY = SGP/SGP4

EPOCH          = 2026-01-30T05:56:58.929792
MEAN_MOTION    = 13.52660446
ECCENTRICITY   = .00049829
INCLINATION    = 88.9994
RA_OF_ASC_NODE = 282.5675
ARG_OF_PERICENTER = 106.7447
MEAN_ANOMALY   = 253.4252

EPHEMERIS_TYPE = 0
CLASSIFICATION_TYPE = U
NORAD_CAT_ID   = 67557
ELEMENT_SET_NO = 999
REV_AT_EPOCH   = 106
BSTAR          = .68066989E-4
MEAN_MOTION_DOT = .57E-6
MEAN_MOTION_DDOT = 0

CCSDS_OMM_VERS = 2.0
CREATION_DATE  = 
ORIGINATOR     = 

OBJECT_NAME    = ELECTRON R/B
OBJECT_ID      = 2026-015C
CENTER_NAME    = EARTH
REF_FRAME      = TEME
TIME_SYSTEM    = UTC
MEAN_ELEMENT_THEORY = SGP/SGP4

EPOCH          = 2026-01-30T05:26:46.143744
MEAN_MOTION    = 14.93583696
ECCENTRICITY   = .05915874
INCLINATION    = 89.0052
RA_OF_ASC_NODE = 282.3574
ARG_OF_PERICENTER = 242.1320
MEAN_ANOMALY   = 111.8798

EPHEMERIS_TYPE = 0
CLASSIFICATION_TYPE = U
NORAD_CAT_ID   = 67558
ELEMENT_SET_NO = 999
REV_AT_EPOCH   = 116
BSTAR          = .12369097E-2
MEAN_MOTION_DOT = .1144418E-1
MEAN_MOTION_DDOT = -.515445E-6

CCSDS_OMM_VERS = 2.0
CREATION_DATE  = 
ORIGINATOR     = 

OBJECT_NAME    = ELECTRON KICK STAGE R/B
OBJECT_ID      = 2026-015D
CENTER_NAME    = EARTH
REF_FRAME      = TEME
TIME_SYSTEM    = UTC
MEAN_ELEMENT_THEORY = SGP/SGP4

EPOCH          = 2026-01-30T06:23:30.632064
MEAN_MOTION    = 14.66158363
ECCENTRICITY   = .05372025
INCLINATION    = 89.0538
RA_OF_ASC_NODE = 282.4263
ARG_OF_PERICENTER = 308.4366
MEAN_ANOMALY   = 46.9768

EPHEMERIS_TYPE = 0
CLASSIFICATION_TYPE = U
NORAD_CAT_ID   = 67559
ELEMENT_SET_NO = 999
REV_AT_EPOCH   = 115
BSTAR          = .12319083E-2
MEAN_MOTION_DOT = .72335E-3
MEAN_MOTION_DDOT = .30491E-6

CCSDS_OMM_VERS = 2.0
CREATION_DATE  = 
ORIGINATOR     = 

OBJECT_NAME    = STARLINK-36426
OBJECT_ID      = 2026-014AA
CENTER_NAME    = EARTH
REF_FRAME      = TEME
TIME_SYSTEM    = UTC
MEAN_ELEMENT_THEORY = SGP/SGP4

EPOCH          = 2026-01-27T14:00:04.000032
MEAN_MOTION    = 16.04339818
ECCENTRICITY   = .0001173
INCLINATION    = 97.2806
RA_OF_ASC_NODE = 270.2281
ARG_OF_PERICENTER = 81.1243
MEAN_ANOMALY   = 345.7526

EPHEMERIS_TYPE = 0
CLASSIFICATION_TYPE = U
NORAD_CAT_ID   = 67560
ELEMENT_SET_NO = 999
REV_AT_EPOCH   = 208
BSTAR          = -.17536E-2
MEAN_MOTION_DOT = -.1138703E-1
MEAN_MOTION_DDOT = .4383E-3

CCSDS_OMM_VERS = 2.0
CREATION_DATE  = 
ORIGINATOR     = 

OBJECT_NAME    = CZ-2C DEB
OBJECT_ID      = 2026-009C
CENTER_NAME    = EARTH
REF_FRAME      = TEME
TIME_SYSTEM    = UTC
MEAN_ELEMENT_THEORY = SGP/SGP4

EPOCH          = 2026-01-30T03:00:45.582048
MEAN_MOTION    = 15.10712799
ECCENTRICITY   = .01450695
INCLINATION    = 97.2223
RA_OF_ASC_NODE = 104.2452
ARG_OF_PERICENTER = 171.6325
MEAN_ANOMALY   = 188.7377

EPHEMERIS_TYPE = 0
CLASSIFICATION_TYPE = U
NORAD_CAT_ID   = 67586
ELEMENT_SET_NO = 999
REV_AT_EPOCH   = 225
BSTAR          = .1272598E-2
MEAN_MOTION_DOT = .27161E-3
MEAN_MOTION_DDOT = 0

CCSDS_OMM_VERS = 2.0
CREATION_DATE  = 
ORIGINATOR     = 

OBJECT_NAME    = CZ-2C DEB
OBJECT_ID      = 2026-009D
CENTER_NAME    = EARTH
REF_FRAME      = TEME
TIME_SYSTEM    = UTC
MEAN_ELEMENT_THEORY = SGP/SGP4

EPOCH          = 2026-01-30T05:44:30.329952
MEAN_MOTION    = 15.12570869
ECCENTRICITY   = .01096002
INCLINATION    = 97.6751
RA_OF_ASC_NODE = 105.0240
ARG_OF_PERICENTER = 175.2408
MEAN_ANOMALY   = 184.9892

EPHEMERIS_TYPE = 0
CLASSIFICATION_TYPE = U
NORAD_CAT_ID   = 67587
ELEMENT_SET_NO = 999
REV_AT_EPOCH   = 227
BSTAR          = .28546979E-2
MEAN_MOTION_DOT = .57997E-3
MEAN_MOTION_DDOT = 0

CCSDS_OMM_VERS = 2.0
CREATION_DATE  = 
ORIGINATOR     = 

OBJECT_NAME    = NAVSTAR 85 (USA 581)
OBJECT_ID      = 2026-017A
CENTER_NAME    = EARTH
REF_FRAME      = TEME
TIME_SYSTEM    = UTC
MEAN_ELEMENT_THEORY = SGP/SGP4

EPOCH          = 2026-01-28T18:17:22.544736
MEAN_MOTION    = 4.03376750
ECCENTRICITY   = .59408377
INCLINATION    = 55.0007
RA_OF_ASC_NODE = 99.1396
ARG_OF_PERICENTER = 270.1415
MEAN_ANOMALY   = 26.1406

EPHEMERIS_TYPE = 0
CLASSIFICATION_TYPE = U
NORAD_CAT_ID   = 67588
ELEMENT_SET_NO = 999
REV_AT_EPOCH   = 4
BSTAR          = .32093292E-3
MEAN_MOTION_DOT = .346E-5
MEAN_MOTION_DDOT = 0

